INTELSAT 902 (IS-902)   
1 26900U 01039A   26158.19304324 -.00000270  00000+0  00000+0 0  9996
2 26900   6.0933  71.9037 0004296   1.6561 201.4206  1.00270646 90591
INTELSAT 904 (IS-904)   
1 27380U 02007A   26157.62641043 -.00000213  00000+0  00000+0 0  9991
2 27380   6.8931  69.3106 0007136   0.5431  19.1983  1.00270083 51664
DIRECTV 5 (TEMPO 1)     
1 27426U 02023A   26158.25248485 -.00000043  00000+0  00000+0 0  9994
2 27426   4.8516  75.4335 0003415   9.6347 151.3837  1.00271713 88024
INTELSAT 905 (IS-905)   
1 27438U 02027A   26158.26911551  .00000107  00000+0  00000+0 0  9993
2 27438   6.7279  69.9191 0004104  14.8881 130.5427  1.00272986 51262
GALAXY 3C (G-3C)        
1 27445U 02030A   26158.22961490 -.00000138  00000+0  00000+0 0  9993
2 27445   3.7043  78.1092 0001878  31.3729 133.9666  1.00271611 46392
INTELSAT 906 (IS-906)   
1 27513U 02041A   26157.99816571  .00000027  00000+0  00000+0 0  9999
2 27513   5.7780  73.0447 0004738 356.8843 248.9538  1.00271051 86922
GALAXY 13 (HORIZONS-1)  
1 27954U 03044A   26158.28695087  .00000147  00000+0  00000+0 0  9995
2 27954   1.3947  83.9775 0002084 346.9932 138.0068  1.00272774 46479
INTELSAT 10-02          
1 28358U 04022A   26158.06023287  .00000003  00000+0  00000+0 0  9995
2 28358   0.0098 327.1020 0000543 191.5219 117.5218  1.00270601 80459
DIRECTV 8               
1 28659U 05019A   26158.23270689  .00000000  00000+0  00000+0 0  9992
2 28659   0.0167 353.7760 0002963  87.5777 139.0074  1.00269832 76972
GALAXY 28 (G-28)        
1 28702U 05022A   26158.22594307 -.00000185  00000+0  00000+0 0  9995
2 28702   3.2741  79.0523 0002925 352.7577 238.0527  1.00275454 51874
GALAXY 16 (G-16)        
1 29236U 06023A   26158.19003021 -.00000113  00000+0  00000+0 0  9995
2 29236   0.0071 261.6261 0002741 173.2606 150.1251  1.00272052 72873
DIRECTV 9S              
1 29494U 06043A   26158.19003021 -.00000099  00000+0  00000+0 0  9996
2 29494   2.3941  81.0228 0005096   5.7338 136.0686  1.00271708 51288
GALAXY 17 (G-17)        
1 31307U 07016B   26158.22961490 -.00000192  00000+0  00000+0 0  9994
2 31307   2.9461  80.0258 0004890  14.2565 159.0265  1.00272180 69706
INTELSAT 11 (IS-11)     
1 32253U 07044B   26158.16532747 -.00000201  00000+0  00000+0 0  9999
2 32253   3.5386  78.7908 0001799  79.7142 326.4349  0.99053818 68353
HORIZONS-2              
1 32388U 07063B   26158.22405994 -.00000239  00000+0  00000+0 0  9990
2 32388   2.5756  80.7480 0004066 354.2063 187.5699  1.00272505 67715
DIRECTV 11              
1 32729U 08013A   26157.96944830 -.00000112  00000+0  00000+0 0  9992
2 32729   0.0213 206.3204 0000547 187.6583 111.2260  1.00270478 45496
GALAXY 18 (G-18)        
1 32951U 08024A   26158.24997152  .00000039  00000+0  00000+0 0  9995
2 32951   0.0233  68.2085 0003199  17.9011 136.5334  1.00272793 45757
INTELSAT 25 (IS-25)     
1 33153U 08034A   26158.23585603 -.00000221  00000+0  00000+0 0  9998
2 33153   2.6818  80.4486 0001911  30.5729  35.5249  0.99020802 65593
GALAXY 19 (G-19)        
1 33376U 08045A   26158.23379476 -.00000125  00000+0  00000+0 0  9999
2 33376   0.0199  73.4393 0002853 357.5568 171.8237  1.00274549 64808
FM-5                    
1 35493U 09034A   26158.22961490 -.00000186  00000+0  00000+0 0  9999
2 35493   0.0169 291.4843 0000499  21.2637 299.4004  1.00273526 46549
INTELSAT 14 (IS-14)     
1 36097U 09064A   26158.32160958 -.00000259  00000+0  00000+0 0  9995
2 36097   0.0162 329.4096 0002836 122.1194 234.9917  1.00271481 60508
INTELSAT 15 (IS-15)     
1 36106U 09067A   26158.07729492 -.00000171  00000+0  00000+0 0  9998
2 36106   0.0120 331.0875 0002372 107.5623 289.8177  1.00271931 41120
DIRECTV 12              
1 36131U 09075A   26158.19003021 -.00000089  00000+0  00000+0 0  9999
2 36131   0.0435 142.8161 0000286 271.3664 167.1111  1.00271322 46451
INTELSAT 16 (IS-16)     
1 36397U 10006A   26158.22405994 -.00000230  00000+0  00000+0 0  9996
2 36397   0.0224  48.7024 0002190  41.2285 170.1791  1.00271041 59553
XM-5                    
1 37185U 10053A   26158.03762906 -.00000009  00000+0  00000+0 0  9996
2 37185   0.0647 273.0346 0002765 281.3601 319.4134  1.00271550 57388
INTELSAT 17 (IS-17)     
1 37238U 10065B   26158.13447851  .00000012  00000+0  00000+0 0  9991
2 37238   0.0095 104.6758 0002579 347.3853 277.8919  1.00272076 53147
INTELSAT 28 (IS-28)     
1 37392U 11016A   26158.31688118 -.00000211  00000+0  00000+0 0  9994
2 37392   1.7798  82.7456 0003943 353.7356 261.6225  1.00269111 53183
INTELSAT 18 (IS-18)     
1 37834U 11056A   26158.23862937  .00000067  00000+0  00000+0 0  9991
2 37834   0.0185 316.5654 0002164 133.0995  71.8904  1.00272104 53716
INTELSAT 22 (IS-22)     
1 38098U 12011A   26158.13447851 -.00000045  00000+0  00000+0 0  9996
2 38098   0.0188  57.7505 0001608   7.8725 310.4276  1.00273293  7085
INTELSAT 19 (IS-19)     
1 38356U 12030A   26158.23585603 -.00000042  00000+0  00000+0 0  9990
2 38356   0.0087  27.3737 0003109  56.4946  62.6861  1.00271483 50356
INTELSAT 20 (IS-20)     
1 38740U 12043A   26158.13447851 -.00000010  00000+0  00000+0 0  9997
2 38740   0.0013  29.9800 0001577 146.4747 195.9937  1.00271971 50645
INTELSAT 21 (IS-21)     
1 38749U 12045A   26158.19151208 -.00000271  00000+0  00000+0 0  9991
2 38749   0.0435  86.4307 0002037 357.2616 182.8673  1.00272646 50429
INTELSAT 23 (IS-23)     
1 38867U 12057A   26158.25542394 -.00000270  00000+0  00000+0 0  9991
2 38867   0.0126 327.3337 0000573 121.5820 205.6922  1.00275888 49856
FM-6                    
1 39360U 13058A   26158.25127152  .00000001  00000+0  00000+0 0  9994
2 39360   0.0160  52.9052 0002473  98.4174  78.4470  1.00252250 45974
INTELSAT 30 (IS-30)     
1 40271U 14062A   26158.18316287 -.00000136  00000+0  00000+0 0  9994
2 40271   0.0231  41.8371 0000995 355.8701 188.7404  1.00270215  6699
DIRECTV 14              
1 40333U 14078B   26158.19003021 -.00000111  00000+0  00000+0 0  9993
2 40333   0.0092 348.3328 0000466 191.5531  44.8845  1.00270265 41942
DIRECTV 15              
1 40663U 15026A   26158.25991174 -.00000088  00000+0  00000+0 0  9998
2 40663   0.0180 359.6834 0000403 230.4335  16.2473  1.00271734 40366
SKY MEXICO-1            
1 40664U 15026B   26158.19232530 -.00000220  00000+0  00000+0 0  9994
2 40664   0.0158  49.6664 0002250  43.8665 152.5101  1.00271898 40355
INTELSAT 34 (IS-34)     
1 40874U 15039A   26158.16780808 -.00000271  00000+0  00000+0 0  9990
2 40874   0.0096 325.8721 0000227  47.3393 247.2900  1.00270712 39532
INTELSAT 31 (IS-31)     
1 41581U 16035A   26158.22961490 -.00000137  00000+0  00000+0 0  9999
2 41581   0.0188 260.4134 0000894 331.4575  11.3878  1.00270615 36589
INTELSAT 36 (IS-36)     
1 41747U 16053A   26158.21653002 -.00000010  00000+0  00000+0 0  9999
2 41747   0.0101 350.7226 0001766 350.0426  61.3111  1.00272302 35853
INTELSAT 32E (IS-32E)   
1 41945U 17007B   26158.19442992 -.00000255  00000+0  00000+0 0  9991
2 41945   0.0180 333.1409 0000339 344.1070 325.1747  1.00270129 34122
INTELSAT 35E (IS-35E)   
1 42818U 17041A   26158.29480182 -.00000223  00000+0  00000+0 0  9998
2 42818   0.0179  56.6344 0001868  19.5420 251.1770  1.00272996 32716
INTELSAT 37E (IS-37E)   
1 42950U 17059A   26158.19945661  .00000000  00000+0  00000+0 0  9993
2 42950   0.0157 346.3354 0002498 111.8218 211.2626  1.00268788 31967
AZERSPACE 2 (IS-38)     
1 43632U 18074A   26158.21193667  .00000151  00000+0  00000+0 0  9990
2 43632   0.0177 314.7574 0001538 118.2090 304.0654  1.00271229 28347
HORIZONS-3E             
1 43633U 18074B   26157.80870479 -.00000017  00000+0  00000+0 0  9990
2 43633   0.0165 151.8957 0000828 142.2453  61.2147  1.00270465 28239
AT&T T-16               
1 44333U 19034A   26158.19003021 -.00000101  00000+0  00000+0 0  9993
2 44333   0.0204  59.9403 0000510 194.2517 328.9694  1.00269190 25534
INTELSAT 39 (IS-39)     
1 44476U 19049B   26158.21531669  .00000048  00000+0  00000+0 0  9993
2 44476   0.0163 307.7361 0000732  14.2904  73.0715  1.00271243 25028
GALAXY 30 (G-30)        
1 46114U 20056C   26158.24953817  .00000051  00000+0  00000+0 0  9994
2 46114   0.0177 355.3020 0002257  79.3374 145.8433  1.00272621 21192
GALAXY 33 (G-33)        
1 54026U 22128A   26158.26731380  .00000093  00000+0  00000+0 0  9994
2 54026   0.0245  54.3272 0001893  21.8932 142.7022  1.00272327 13645
GALAXY 34 (G-34)        
1 54027U 22128B   26158.27825483  .00000073  00000+0  00000+0 0  9992
2 54027   0.0093 329.9038 0001888 116.1135 140.8460  1.00272631 13817
GALAXY 31 (G-31)        
1 54243U 22153A   26158.25023152  .00000027  00000+0  00000+0 0  9990
2 54243   0.0291  96.9802 0001365 340.2751 147.4895  1.00272315  7032
GALAXY 32 (G-32)        
1 54244U 22153B   26158.22961490 -.00000160  00000+0  00000+0 0  9993
2 54244   0.0092 328.6905 0002169  69.5922 209.0222  1.00269815 13043
GALAXY 35 (G-35)        
1 54741U 22170A   26158.18447527 -.00000148  00000+0  00000+0 0  9995
2 54741   0.0189  71.9165 0002149   7.5721 149.4228  1.00271827 12795
GALAXY 36 (G-36)        
1 54742U 22170B   26158.18535872 -.00000171  00000+0  00000+0 0  9993
2 54742   0.0128 164.1120 0002749 278.0765 151.1434  1.00271516 12675
GALAXY 37 (G-37)        
1 57493U 23112A   26158.24919150  .00000062  00000+0  00000+0 0  9996
2 57493   0.0173 326.8730 0002056 109.7288 141.7688  1.00271604 10443
